ONEWEB-0714             
1 54681U 22166AR  26171.27682080 -.00000104  00000+0 -28278-3 0  9997
2 54681  87.9250 243.3634 0001709 100.6572 259.4754 13.21824400171943
ONEWEB-0532             
1 55140U 23004A   26170.91807639 -.00003751  00000+0 -96768-2 0  9998
2 55140  87.9131   5.3212 0002065  91.4699 268.6670 13.17789087167943
ONEWEB-0533             
1 55141U 23004B   26171.20193940 -.00000064  00000+0 -21367-3 0  9993
2 55141  87.8945 350.0706 0001776  85.5278 274.6054 13.12443382168459
ONEWEB-0541             
1 55142U 23004C   26171.00526625 -.00000477  00000+0 -13812-2 0  9995
2 55142  87.8896  20.4970 0001949  90.5458 269.5893 13.11418332166317
ONEWEB-0543             
1 55143U 23004D   26171.19893468 -.00000094  00000+0 -27226-3 0  9998
2 55143  87.9162 334.8699 0001647  94.6725 265.4596 13.18684696170092
ONEWEB-0544             
1 55144U 23004E   26171.19219032  .00000042  00000+0  74663-4 0  9997
2 55144  87.9162 334.8710 0001785 100.0787 260.0547 13.18685422170095
ONEWEB-0560             
1 55145U 23004F   26170.95781192  .00000035  00000+0  57269-4 0  9997
2 55145  87.9163 334.9070 0001685 101.5785 258.5537 13.18687018170072
ONEWEB-0565             
1 55146U 23004G   26171.17870446  .00000034  00000+0  54563-4 0  9997
2 55146  87.9156 334.8906 0002142 103.1940 256.9431 13.18685221170093
ONEWEB-0567             
1 55147U 23004H   26171.17196146  .00000028  00000+0  38888-4 0  9991
2 55147  87.9162 334.8767 0001964 104.5844 255.5506 13.18685574170094
ONEWEB-0569             
1 55148U 23004J   26171.13140341 -.00000123  00000+0 -37299-3 0  9996
2 55148  87.8967 319.6333 0001957 125.9510 234.1801 13.13468656170564
ONEWEB-0570             
1 55149U 23004K   26171.16352108  .00000060  00000+0  11902-3 0  9997
2 55149  87.9164 334.8759 0002252  93.4814 266.6575 13.18685395170082
ONEWEB-0571             
1 55150U 23004L   26171.15677250  .00000145  00000+0  33487-3 0  9992
2 55150  87.9162 334.8765 0002405 124.5154 235.6206 13.18688184170099
ONEWEB-0572             
1 55151U 23004M   26170.94929323  .00000022  00000+0  23404-4 0  9993
2 55151  87.9132   5.3158 0001992  94.2557 265.8802 13.17649049167845
ONEWEB-0573             
1 55152U 23004N   26171.15003195  .00000014  00000+0  26494-5 0  9992
2 55152  87.9163 334.8794 0002321 114.0289 246.1087 13.18686690170087
ONEWEB-0588             
1 55153U 23004P   26170.91565955  .00000053  00000+0  10177-3 0  9995
2 55153  87.9156 334.9270 0002357  97.2389 262.9011 13.18686456170052
ONEWEB-0598             
1 55154U 23004Q   26171.28841908 -.00000222  00000+0 -66157-3 0  9991
2 55154  87.8880  20.4511 0001795 109.9391 250.1931 13.11414632166301
