[{"OBJECT_NAME":"ONEWEB-0714","OBJECT_ID":"2022-166AR","EPOCH":"2026-06-20T06:38:37.317120","MEAN_MOTION":13.218244,"ECCENTRICITY":0.0001709,"INCLINATION":87.925,"RA_OF_ASC_NODE":243.3634,"ARG_OF_PERICENTER":100.6572,"MEAN_ANOMALY":259.4754,"EPHEMERIS_TYPE":0,"CLASSIFICATION_TYPE":"U","NORAD_CAT_ID":54681,"ELEMENT_SET_NO":999,"REV_AT_EPOCH":17194,"BSTAR":-0.00028278,"MEAN_MOTION_DOT":-1.04e-06,"MEAN_MOTION_DDOT":0.0},{"OBJECT_NAME":"ONEWEB-0532","OBJECT_ID":"2023-004A","EPOCH":"2026-06-19T22:02:01.800096","MEAN_MOTION":13.17789087,"ECCENTRICITY":0.0002065,"INCLINATION":87.9131,"RA_OF_ASC_NODE":5.3212,"ARG_OF_PERICENTER":91.4699,"MEAN_ANOMALY":268.667,"EPHEMERIS_TYPE":0,"CLASSIFICATION_TYPE":"U","NORAD_CAT_ID":55140,"ELEMENT_SET_NO":999,"REV_AT_EPOCH":16794,"BSTAR":-0.0096768,"MEAN_MOTION_DOT":-3.751e-05,"MEAN_MOTION_DDOT":0.0},{"OBJECT_NAME":"ONEWEB-0533","OBJECT_ID":"2023-004B","EPOCH":"2026-06-20T04:50:47.564160","MEAN_MOTION":13.12443382,"ECCENTRICITY":0.0001776,"INCLINATION":87.8945,"RA_OF_ASC_NODE":350.0706,"ARG_OF_PERICENTER":85.5278,"MEAN_ANOMALY":274.6054,"EPHEMERIS_TYPE":0,"CLASSIFICATION_TYPE":"U","NORAD_CAT_ID":55141,"ELEMENT_SET_NO":999,"REV_AT_EPOCH":16845,"BSTAR":-0.00021367,"MEAN_MOTION_DOT":-6.4e-07,"MEAN_MOTION_DDOT":0.0},{"OBJECT_NAME":"ONEWEB-0541","OBJECT_ID":"2023-004C","EPOCH":"2026-06-20T00:07:35.004000","MEAN_MOTION":13.11418332,"ECCENTRICITY":0.0001949,"INCLINATION":87.8896,"RA_OF_ASC_NODE":20.497,"ARG_OF_PERICENTER":90.5458,"MEAN_ANOMALY":269.5893,"EPHEMERIS_TYPE":0,"CLASSIFICATION_TYPE":"U","NORAD_CAT_ID":55142,"ELEMENT_SET_NO":999,"REV_AT_EPOCH":16631,"BSTAR":-0.0013812,"MEAN_MOTION_DOT":-4.77e-06,"MEAN_MOTION_DDOT":0.0},{"OBJECT_NAME":"ONEWEB-0543","OBJECT_ID":"2023-004D","EPOCH":"2026-06-20T04:46:27.956352","MEAN_MOTION":13.18684696,"ECCENTRICITY":0.0001647,"INCLINATION":87.9162,"RA_OF_ASC_NODE":334.8699,"ARG_OF_PERICENTER":94.6725,"MEAN_ANOMALY":265.4596,"EPHEMERIS_TYPE":0,"CLASSIFICATION_TYPE":"U","NORAD_CAT_ID":55143,"ELEMENT_SET_NO":999,"REV_AT_EPOCH":17009,"BSTAR":-0.00027226,"MEAN_MOTION_DOT":-9.4e-07,"MEAN_MOTION_DDOT":0.0},{"OBJECT_NAME":"ONEWEB-0544","OBJECT_ID":"2023-004E","EPOCH":"2026-06-20T04:36:45.243648","MEAN_MOTION":13.18685422,"ECCENTRICITY":0.0001785,"INCLINATION":87.9162,"RA_OF_ASC_NODE":334.871,"ARG_OF_PERICENTER":100.0787,"MEAN_ANOMALY":260.0547,"EPHEMERIS_TYPE":0,"CLASSIFICATION_TYPE":"U","NORAD_CAT_ID":55144,"ELEMENT_SET_NO":999,"REV_AT_EPOCH":17009,"BSTAR":7.4663e-05,"MEAN_MOTION_DOT":4.2e-07,"MEAN_MOTION_DDOT":0.0},{"OBJECT_NAME":"ONEWEB-0560","OBJECT_ID":"2023-004F","EPOCH":"2026-06-19T22:59:14.949888","MEAN_MOTION":13.18687018,"ECCENTRICITY":0.0001685,"INCLINATION":87.9163,"RA_OF_ASC_NODE":334.907,"ARG_OF_PERICENTER":101.5785,"MEAN_ANOMALY":258.5537,"EPHEMERIS_TYPE":0,"CLASSIFICATION_TYPE":"U","NORAD_CAT_ID":55145,"ELEMENT_SET_NO":999,"REV_AT_EPOCH":17007,"BSTAR":5.7269000000000003e-05,"MEAN_MOTION_DOT":3.5e-07,"MEAN_MOTION_DDOT":0.0},{"OBJECT_NAME":"ONEWEB-0565","OBJECT_ID":"2023-004G","EPOCH":"2026-06-20T04:17:20.065344","MEAN_MOTION":13.18685221,"ECCENTRICITY":0.0002142,"INCLINATION":87.9156,"RA_OF_ASC_NODE":334.8906,"ARG_OF_PERICENTER":103.194,"MEAN_ANOMALY":256.9431,"EPHEMERIS_TYPE":0,"CLASSIFICATION_TYPE":"U","NORAD_CAT_ID":55146,"ELEMENT_SET_NO":999,"REV_AT_EPOCH":17009,"BSTAR":5.4563e-05,"MEAN_MOTION_DOT":3.4e-07,"MEAN_MOTION_DDOT":0.0},{"OBJECT_NAME":"ONEWEB-0567","OBJECT_ID":"2023-004H","EPOCH":"2026-06-20T04:07:37.470144","MEAN_MOTION":13.18685574,"ECCENTRICITY":0.0001964,"INCLINATION":87.9162,"RA_OF_ASC_NODE":334.8767,"ARG_OF_PERICENTER":104.5844,"MEAN_ANOMALY":255.5506,"EPHEMERIS_TYPE":0,"CLASSIFICATION_TYPE":"U","NORAD_CAT_ID":55147,"ELEMENT_SET_NO":999,"REV_AT_EPOCH":17009,"BSTAR":3.8888000000000004e-05,"MEAN_MOTION_DOT":2.8e-07,"MEAN_MOTION_DDOT":0.0},{"OBJECT_NAME":"ONEWEB-0569","OBJECT_ID":"2023-004J","EPOCH":"2026-06-20T03:09:13.254624","MEAN_MOTION":13.13468656,"ECCENTRICITY":0.0001957,"INCLINATION":87.8967,"RA_OF_ASC_NODE":319.6333,"ARG_OF_PERICENTER":125.951,"MEAN_ANOMALY":234.1801,"EPHEMERIS_TYPE":0,"CLASSIFICATION_TYPE":"U","NORAD_CAT_ID":55148,"ELEMENT_SET_NO":999,"REV_AT_EPOCH":17056,"BSTAR":-0.00037299,"MEAN_MOTION_DOT":-1.23e-06,"MEAN_MOTION_DDOT":0.0},{"OBJECT_NAME":"ONEWEB-0570","OBJECT_ID":"2023-004K","EPOCH":"2026-06-20T03:55:28.221312","MEAN_MOTION":13.18685395,"ECCENTRICITY":0.0002252,"INCLINATION":87.9164,"RA_OF_ASC_NODE":334.8759,"ARG_OF_PERICENTER":93.4814,"MEAN_ANOMALY":266.6575,"EPHEMERIS_TYPE":0,"CLASSIFICATION_TYPE":"U","NORAD_CAT_ID":55149,"ELEMENT_SET_NO":999,"REV_AT_EPOCH":17008,"BSTAR":0.00011902000000000001,"MEAN_MOTION_DOT":6e-07,"MEAN_MOTION_DDOT":0.0},{"OBJECT_NAME":"ONEWEB-0571","OBJECT_ID":"2023-004L","EPOCH":"2026-06-20T03:45:45.144000","MEAN_MOTION":13.18688184,"ECCENTRICITY":0.0002405,"INCLINATION":87.9162,"RA_OF_ASC_NODE":334.8765,"ARG_OF_PERICENTER":124.5154,"MEAN_ANOMALY":235.6206,"EPHEMERIS_TYPE":0,"CLASSIFICATION_TYPE":"U","NORAD_CAT_ID":55150,"ELEMENT_SET_NO":999,"REV_AT_EPOCH":17009,"BSTAR":0.00033487,"MEAN_MOTION_DOT":1.45e-06,"MEAN_MOTION_DDOT":0.0},{"OBJECT_NAME":"ONEWEB-0572","OBJECT_ID":"2023-004M","EPOCH":"2026-06-19T22:46:58.935072","MEAN_MOTION":13.17649049,"ECCENTRICITY":0.0001992,"INCLINATION":87.9132,"RA_OF_ASC_NODE":5.3158,"ARG_OF_PERICENTER":94.2557,"MEAN_ANOMALY":265.8802,"EPHEMERIS_TYPE":0,"CLASSIFICATION_TYPE":"U","NORAD_CAT_ID":55151,"ELEMENT_SET_NO":999,"REV_AT_EPOCH":16784,"BSTAR":2.3404e-05,"MEAN_MOTION_DOT":2.2e-07,"MEAN_MOTION_DDOT":0.0},{"OBJECT_NAME":"ONEWEB-0573","OBJECT_ID":"2023-004N","EPOCH":"2026-06-20T03:36:02.760480","MEAN_MOTION":13.1868669,"ECCENTRICITY":0.0002321,"INCLINATION":87.9163,"RA_OF_ASC_NODE":334.8794,"ARG_OF_PERICENTER":114.0289,"MEAN_ANOMALY":246.1087,"EPHEMERIS_TYPE":0,"CLASSIFICATION_TYPE":"U","NORAD_CAT_ID":55152,"ELEMENT_SET_NO":999,"REV_AT_EPOCH":17008,"BSTAR":2.6494000000000004e-06,"MEAN_MOTION_DOT":1.4e-07,"MEAN_MOTION_DDOT":0.0},{"OBJECT_NAME":"ONEWEB-0588","OBJECT_ID":"2023-004P","EPOCH":"2026-06-19T21:58:32.985120","MEAN_MOTION":13.18686456,"ECCENTRICITY":0.0002357,"INCLINATION":87.9156,"RA_OF_ASC_NODE":334.927,"ARG_OF_PERICENTER":97.2389,"MEAN_ANOMALY":262.9011,"EPHEMERIS_TYPE":0,"CLASSIFICATION_TYPE":"U","NORAD_CAT_ID":55153,"ELEMENT_SET_NO":999,"REV_AT_EPOCH":17005,"BSTAR":0.00010177,"MEAN_MOTION_DOT":5.3e-07,"MEAN_MOTION_DDOT":0.0},{"OBJECT_NAME":"ONEWEB-0598","OBJECT_ID":"2023-004Q","EPOCH":"2026-06-20T06:55:19.408512","MEAN_MOTION":13.11414632,"ECCENTRICITY":0.0001795,"INCLINATION":87.888,"RA_OF_ASC_NODE":20.4511,"ARG_OF_PERICENTER":109.9391,"MEAN_ANOMALY":250.1931,"EPHEMERIS_TYPE":0,"CLASSIFICATION_TYPE":"U","NORAD_CAT_ID":55154,"ELEMENT_SET_NO":999,"REV_AT_EPOCH":16630,"BSTAR":-0.00066157,"MEAN_MOTION_DOT":-2.22e-06,"MEAN_MOTION_DDOT":0.0}]